8366,GOES 1 (SMS-C),1975,1436.33,-1.0,-,5.6,Inactive,0,GSO,USA,USA,Unknown,Unknown,Unknown,1 08366U 75100A   25144.38468544 -.00000210  00000+0  00000+0 0  9996,2 08366   5.5974 282.2921 0002620 338.9842  37.0637  1.00255382181178,1.00255382,0.000262,GSO
24786,GOES 10,1997,1452.71,-1.0,-,12.66,Inactive,0,GSO,USA,USA,Unknown,Unknown,Unknown,1 24786U 97019A   25143.84118385 -.00000087  00000+0  00000+0 0  9990,2 24786  12.6662  23.8452 0029333 227.0653 125.5513  0.99125796102206,0.99125796,0.0029333,GSO
17561,GOES 7,1987,1441.57,-1.0,-,13.28,Inactive,0,GSO,USA,USA,Unknown,Unknown,Unknown,1 17561U 87022A   25144.45520432 -.00000018  00000+0  00000+0 0  9998,2 17561  13.2807 340.3841 0003125  61.5582 252.3485  0.99891499123074,0.99891499,0.0003125,GSO
26352,GOES 11,2000,1453.94,-1.0,-,10.98,Inactive,0,GSO,USA,USA,Unknown,Unknown,Unknown,1 26352U 00022A   25144.58658434 -.00000090  00000+0  00000+0 0  9999,2 26352  10.9788  50.1391 0002280 249.6317 254.5233  0.99040653 48626,0.99040653,0.000228,GSO
10061,GOES 2,1977,1448.74,-1.0,-,7.35,Inactive,0,GSO,USA,USA,Unknown,Unknown,Unknown,1 10061U 77048A   25144.39543840 -.00000166  00000+0  00000+0 0  9998,2 10061   7.3440 296.6163 0012200  49.6584 327.7034  0.99396378 42413,0.99396378,0.00122,GSO
26871,GOES 12,2001,1452.52,-1.0,-,11.47,Inactive,0,GSO,USA,USA,Unknown,Unknown,Unknown,1 26871U 01031A   25143.87888990 -.00000043  00000+0  00000+0 0  9997,2 26871  11.4750  40.4838 0006377 309.5466 230.6540  0.99138413 86908,0.99138413,0.0006377,GSO
10953,GOES 3,1978,1449.23,-1.0,-,7.78,Inactive,0,GSO,USA,USA,Unknown,Unknown,Unknown,1 10953U 78062A   25144.06572550 -.00000086  00000+0  00000+0 0  9990,2 10953   7.7825 302.1039 0000253 177.9483 155.9615  0.99363605124668,0.99363605,2.53e-05,GSO
11964,GOES 4,1980,1451.17,-1.0,-,8.83,Inactive,0,GSO,USA,USA,Unknown,Unknown,Unknown,1 11964U 80074A   25144.46129564 -.00000166  00000+0  00000+0 0  9995,2 11964   8.8310 305.8763 0032862 100.5894 294.1250  0.99229798123580,0.99229798,0.0032862,GSO
12472,GOES 5,1981,1435.58,-1.0,-,10.06,Inactive,0,GSO,USA,USA,Unknown,Unknown,Unknown,1 12472U 81049A   25144.38249097 -.00000275  00000+0  00000+0 0  9999,2 12472  10.0563 318.2364 0001656 317.1701  31.7931  1.00307354118948,1.00307354,0.0001656,GSO
14050,GOES 6,1983,1436.01,-1.0,-,10.81,Inactive,0,GSO,USA,USA,Unknown,Unknown,Unknown,1 14050U 83041A   25144.37938538 -.00000269  00000+0  00000+0 0  9994,2 14050  10.8122 323.7722 0001721 199.5822 140.5182  1.00277385212110,1.00277385,0.0001721,GSO
23051,GOES 8,1994,1455.91,-1.0,-,14.1,Inactive,0,GSO,USA,USA,Unknown,Unknown,Unknown,1 23051U 94022A   25144.52002345 -.00000233  00000+0  00000+0 0  9992,2 23051  14.0969  16.5855 0005851  50.7111 127.6228  0.98906276120284,0.98906276,0.0005851,GSO
23581,GOES 9,1995,1457.46,-1.0,-,13.61,Inactive,0,GSO,USA,USA,Unknown,Unknown,Unknown,1 23581U 95025A   25143.87211324 -.00000228  00000+0  00000+0 0  9994,2 23581  13.6152  17.3371 0004993 143.0904  23.4439  0.98802373108911,0.98802373,0.0004993,GSO
35491,GOES 14,2009,1436.1,3200.0,B,0.67,Active,1,GSO,USA,USA,Government,Earth Observation,Delta,1 35491U 09033A   25144.45744072 -.00000057  00000+0  00000+0 0  9997,2 35491   0.6744  88.2582 0001464  52.6845 157.6687  1.00271513  2690,1.00271513,0.0001464,GEO
