[
  {
    "OBJECT_NAME": "GOES 1 (SMS-C)",
    "OBJECT_ID": "1975-100A",
    "EPOCH": "2025-05-24T09:13:56.822016",
    "MEAN_MOTION": 1.00255382,
    "ECCENTRICITY": 0.000262,
    "INCLINATION": 5.5974,
    "RA_OF_ASC_NODE": 282.2921,
    "ARG_OF_PERICENTER": 338.9842,
    "MEAN_ANOMALY": 37.0637,
    "EPHEMERIS_TYPE": 0,
    "CLASSIFICATION_TYPE": "U",
    "NORAD_CAT_ID": 8366,
    "ELEMENT_SET_NO": 999,
    "REV_AT_EPOCH": 18117,
    "BSTAR": 0,
    "MEAN_MOTION_DOT": -2.1e-06,
    "MEAN_MOTION_DDOT": 0
  },
  {
    "OBJECT_NAME": "GOES 2",
    "OBJECT_ID": "1977-048A",
    "EPOCH": "2025-05-24T09:29:25.877760",
    "MEAN_MOTION": 0.99396378,
    "ECCENTRICITY": 0.00122,
    "INCLINATION": 7.344,
    "RA_OF_ASC_NODE": 296.6163,
    "ARG_OF_PERICENTER": 49.6584,
    "MEAN_ANOMALY": 327.7034,
    "EPHEMERIS_TYPE": 0,
    "CLASSIFICATION_TYPE": "U",
    "NORAD_CAT_ID": 10061,
    "ELEMENT_SET_NO": 999,
    "REV_AT_EPOCH": 4241,
    "BSTAR": 0,
    "MEAN_MOTION_DOT": -1.66e-06,
    "MEAN_MOTION_DDOT": 0
  },
  {
    "OBJECT_NAME": "GOES 3",
    "OBJECT_ID": "1978-062A",
    "EPOCH": "2025-05-24T01:34:38.683200",
    "MEAN_MOTION": 0.99363605,
    "ECCENTRICITY": 2.53e-05,
    "INCLINATION": 7.7825,
    "RA_OF_ASC_NODE": 302.1039,
    "ARG_OF_PERICENTER": 177.9483,
    "MEAN_ANOMALY": 155.9615,
    "EPHEMERIS_TYPE": 0,
    "CLASSIFICATION_TYPE": "U",
    "NORAD_CAT_ID": 10953,
    "ELEMENT_SET_NO": 999,
    "REV_AT_EPOCH": 12466,
    "BSTAR": 0,
    "MEAN_MOTION_DOT": -8.6e-07,
    "MEAN_MOTION_DDOT": 0
  },
  {
    "OBJECT_NAME": "GOES 4",
    "OBJECT_ID": "1980-074A",
    "EPOCH": "2025-05-24T11:04:15.943296",
    "MEAN_MOTION": 0.99229798,
    "ECCENTRICITY": 0.0032862,
    "INCLINATION": 8.831,
    "RA_OF_ASC_NODE": 305.8763,
    "ARG_OF_PERICENTER": 100.5894,
    "MEAN_ANOMALY": 294.125,
    "EPHEMERIS_TYPE": 0,
    "CLASSIFICATION_TYPE": "U",
    "NORAD_CAT_ID": 11964,
    "ELEMENT_SET_NO": 999,
    "REV_AT_EPOCH": 12358,
    "BSTAR": 0,
    "MEAN_MOTION_DOT": -1.66e-06,
    "MEAN_MOTION_DDOT": 0
  },
  {
    "OBJECT_NAME": "GOES 5",
    "OBJECT_ID": "1981-049A",
    "EPOCH": "2025-05-24T09:10:47.219808",
    "MEAN_MOTION": 1.00307354,
    "ECCENTRICITY": 0.0001656,
    "INCLINATION": 10.0563,
    "RA_OF_ASC_NODE": 318.2364,
    "ARG_OF_PERICENTER": 317.1701,
    "MEAN_ANOMALY": 31.7931,
    "EPHEMERIS_TYPE": 0,
    "CLASSIFICATION_TYPE": "U",
    "NORAD_CAT_ID": 12472,
    "ELEMENT_SET_NO": 999,
    "REV_AT_EPOCH": 11894,
    "BSTAR": 0,
    "MEAN_MOTION_DOT": -2.75e-06,
    "MEAN_MOTION_DDOT": 0
  },
  {
    "OBJECT_NAME": "GOES 6",
    "OBJECT_ID": "1983-041A",
    "EPOCH": "2025-05-24T09:06:18.896832",
    "MEAN_MOTION": 1.00277385,
    "ECCENTRICITY": 0.0001721,
    "INCLINATION": 10.8122,
    "RA_OF_ASC_NODE": 323.7722,
    "ARG_OF_PERICENTER": 199.5822,
    "MEAN_ANOMALY": 140.5182,
    "EPHEMERIS_TYPE": 0,
    "CLASSIFICATION_TYPE": "U",
    "NORAD_CAT_ID": 14050,
    "ELEMENT_SET_NO": 999,
    "REV_AT_EPOCH": 21211,
    "BSTAR": 0,
    "MEAN_MOTION_DOT": -2.69e-06,
    "MEAN_MOTION_DDOT": 0
  },
  {
    "OBJECT_NAME": "GOES 7",
    "OBJECT_ID": "1987-022A",
    "EPOCH": "2025-05-24T10:55:29.653248",
    "MEAN_MOTION": 0.99891499,
    "ECCENTRICITY": 0.0003125,
    "INCLINATION": 13.2807,
    "RA_OF_ASC_NODE": 340.3841,
    "ARG_OF_PERICENTER": 61.5582,
    "MEAN_ANOMALY": 252.3485,
    "EPHEMERIS_TYPE": 0,
    "CLASSIFICATION_TYPE": "U",
    "NORAD_CAT_ID": 17561,
    "ELEMENT_SET_NO": 999,
    "REV_AT_EPOCH": 12307,
    "BSTAR": 0,
    "MEAN_MOTION_DOT": -1.8e-07,
    "MEAN_MOTION_DDOT": 0
  },
  {
    "OBJECT_NAME": "GOES 8",
    "OBJECT_ID": "1994-022A",
    "EPOCH": "2025-05-24T12:28:50.026080",
    "MEAN_MOTION": 0.98906276,
    "ECCENTRICITY": 0.0005851,
    "INCLINATION": 14.0969,
    "RA_OF_ASC_NODE": 16.5855,
    "ARG_OF_PERICENTER": 50.7111,
    "MEAN_ANOMALY": 127.6228,
    "EPHEMERIS_TYPE": 0,
    "CLASSIFICATION_TYPE": "U",
    "NORAD_CAT_ID": 23051,
    "ELEMENT_SET_NO": 999,
    "REV_AT_EPOCH": 12028,
    "BSTAR": 0,
    "MEAN_MOTION_DOT": -2.33e-06,
    "MEAN_MOTION_DDOT": 0
  },
  {
    "OBJECT_NAME": "GOES 9",
    "OBJECT_ID": "1995-025A",
    "EPOCH": "2025-05-23T20:55:50.583936",
    "MEAN_MOTION": 0.98802373,
    "ECCENTRICITY": 0.0004993,
    "INCLINATION": 13.6152,
    "RA_OF_ASC_NODE": 17.3371,
    "ARG_OF_PERICENTER": 143.0904,
    "MEAN_ANOMALY": 23.4439,
    "EPHEMERIS_TYPE": 0,
    "CLASSIFICATION_TYPE": "U",
    "NORAD_CAT_ID": 23581,
    "ELEMENT_SET_NO": 999,
    "REV_AT_EPOCH": 10891,
    "BSTAR": 0,
    "MEAN_MOTION_DOT": -2.28e-06,
    "MEAN_MOTION_DDOT": 0
  },
  {
    "OBJECT_NAME": "GOES 10",
    "OBJECT_ID": "1997-019A",
    "EPOCH": "2025-05-23T20:11:18.284640",
    "MEAN_MOTION": 0.99125796,
    "ECCENTRICITY": 0.0029333,
    "INCLINATION": 12.6662,
    "RA_OF_ASC_NODE": 23.8452,
    "ARG_OF_PERICENTER": 227.0653,
    "MEAN_ANOMALY": 125.5513,
    "EPHEMERIS_TYPE": 0,
    "CLASSIFICATION_TYPE": "U",
    "NORAD_CAT_ID": 24786,
    "ELEMENT_SET_NO": 999,
    "REV_AT_EPOCH": 10220,
    "BSTAR": 0,
    "MEAN_MOTION_DOT": -8.7e-07,
    "MEAN_MOTION_DDOT": 0
  },
  {
    "OBJECT_NAME": "GOES 11",
    "OBJECT_ID": "2000-022A",
    "EPOCH": "2025-05-24T14:04:40.886976",
    "MEAN_MOTION": 0.99040653,
    "ECCENTRICITY": 0.000228,
    "INCLINATION": 10.9788,
    "RA_OF_ASC_NODE": 50.1391,
    "ARG_OF_PERICENTER": 249.6317,
    "MEAN_ANOMALY": 254.5233,
    "EPHEMERIS_TYPE": 0,
    "CLASSIFICATION_TYPE": "U",
    "NORAD_CAT_ID": 26352,
    "ELEMENT_SET_NO": 999,
    "REV_AT_EPOCH": 4862,
    "BSTAR": 0,
    "MEAN_MOTION_DOT": -9e-07,
    "MEAN_MOTION_DDOT": 0
  },
  {
    "OBJECT_NAME": "GOES 12",
    "OBJECT_ID": "2001-031A",
    "EPOCH": "2025-05-23T21:05:36.087360",
    "MEAN_MOTION": 0.99138413,
    "ECCENTRICITY": 0.0006377,
    "INCLINATION": 11.475,
    "RA_OF_ASC_NODE": 40.4838,
    "ARG_OF_PERICENTER": 309.5466,
    "MEAN_ANOMALY": 230.654,
    "EPHEMERIS_TYPE": 0,
    "CLASSIFICATION_TYPE": "U",
    "NORAD_CAT_ID": 26871,
    "ELEMENT_SET_NO": 999,
    "REV_AT_EPOCH": 8690,
    "BSTAR": 0,
    "MEAN_MOTION_DOT": -4.3e-07,
    "MEAN_MOTION_DDOT": 0
  },
  {
    "OBJECT_NAME": "GOES 14",
    "OBJECT_ID": "2009-033A",
    "EPOCH": "2025-05-24T10:58:42.878208",
    "MEAN_MOTION": 1.00271513,
    "ECCENTRICITY": 0.0001464,
    "INCLINATION": 0.6744,
    "RA_OF_ASC_NODE": 88.2582,
    "ARG_OF_PERICENTER": 52.6845,
    "MEAN_ANOMALY": 157.6687,
    "EPHEMERIS_TYPE": 0,
    "CLASSIFICATION_TYPE": "U",
    "NORAD_CAT_ID": 35491,
    "ELEMENT_SET_NO": 999,
    "REV_AT_EPOCH": 269,
    "BSTAR": 0,
    "MEAN_MOTION_DOT": -5.7e-07,
    "MEAN_MOTION_DDOT": 0
  }
]